STARLINK-36879
1 67982U 26038X   26092.83335647  .00086847  00000+0  26759-2 0  9992
2 67982  97.2845 103.6717 0001919  64.9356 311.2164 15.33274248  5807
